[{"OBJECT_NAME":"STARLINK-2334","OBJECT_ID":"2021-018F","EPOCH":"2026-03-09T18:27:21.101472","MEAN_MOTION":15.0639831,"ECCENTRICITY":0.00012146,"INCLINATION":53.0558,"RA_OF_ASC_NODE":231.2619,"ARG_OF_PERICENTER":89.3801,"MEAN_ANOMALY":270.7327,"EPHEMERIS_TYPE":0,"CLASSIFICATION_TYPE":"U","NORAD_CAT_ID":47792,"ELEMENT_SET_NO":999,"REV_AT_EPOCH":27689,"BSTAR":0.00011409139,"MEAN_MOTION_DOT":1.418e-5,"MEAN_MOTION_DDOT":0},{"OBJECT_NAME":"USA 60","OBJECT_ID":"1990-050B","EPOCH":"2026-03-09T13:24:55.962720","MEAN_MOTION":13.64521674,"ECCENTRICITY":0.0879763,"INCLINATION":63.2945,"RA_OF_ASC_NODE":117.426,"ARG_OF_PERICENTER":81.005,"MEAN_ANOMALY":288.9398,"EPHEMERIS_TYPE":0,"CLASSIFICATION_TYPE":"U","NORAD_CAT_ID":20682,"ELEMENT_SET_NO":999,"REV_AT_EPOCH":9025,"BSTAR":0.00037184,"MEAN_MOTION_DOT":5.55e-5,"MEAN_MOTION_DDOT":0}]
